*******************************************************************************
Ephemeris / WWW_USER Mon Mar 10 06:56:01 2025 Pasadena, USA      / Horizons    
*******************************************************************************
Target body name: (2018 WD2)                      {source: JPL#7}
Center body name: Earth (399)                     {source: DE441}
Center-site name: Mauna Kea
*******************************************************************************
Start time      : A.D. 2018-Nov-30 03:51:00.0000 UT      
Stop  time      : A.D. 2018-Nov-30 16:29:00.0000 UT      
Step-size       : 1 minutes
*******************************************************************************
Target pole/equ : undefined
Target radii    : undefined                                                    
Center geodetic : 204.5278, 19.8260847, 4.21024   {E-lon(deg),Lat(deg),Alt(km)}
Center cylindric: 204.5278, 6006.35451, 2151.0229 {E-lon(deg),Dxy(km),Dz(km)}
Center pole/equ : ITRF93                          {East-longitude positive}
Center radii    : 6378.137, 6378.137, 6356.752 km {Equator_a, b, pole_c}       
Target primary  : Sun
Vis. interferer : MOON (R_eq= 1737.400) km        {source: DE441}
Rel. light bend : Sun                             {source: DE441}
Rel. lght bnd GM: 1.3271E+11 km^3/s^2                                          
Small-body perts: Yes                             {source: SB441-N16}
Atmos refraction: NO (AIRLESS)
RA format       : HMS
Time format     : CAL 
Calendar mode   : Mixed Julian/Gregorian
RTS-only print  : NO       
EOP file        : eop.250307.p250603                                           
EOP coverage    : DATA-BASED 1962-JAN-20 TO 2025-MAR-07. PREDICTS-> 2025-JUN-02
Units conversion: 1 au= 149597870.700 km, c= 299792.458 km/s, 1 day= 86400.0 s 
Table cut-offs 1: Elevation (-90.0deg=NO ),Airmass (>38.000=NO), Daylight (YES)
Table cut-offs 2: Solar elongation (  0.0,180.0=NO ),Local Hour Angle( 0.0=NO )
Table cut-offs 3: RA/DEC angular rate (     0.0=NO )                           
*******************************************************************************
Initial IAU76/J2000 heliocentric ecliptic osculating elements (au, days, deg.):
  EPOCH=  2458442.5 ! 2018-Nov-20.00 (TDB)         Residual RMS= .32422        
   EC= .524986067713519    QR= .9778174985080528   TP= 2458471.2675125618      
   OM= 251.0855257113189   W=  198.8561547827716   IN= 2.860917524648221       
  Equivalent ICRF heliocentric cartesian coordinates (au, au/d):
   X= 5.933978759455335E-01  Y= 7.796199626272187E-01  Z= 3.534710331364960E-01
  VX=-1.894544763705440E-02 VY= 7.774789113426014E-03 VZ= 2.252803318104249E-03
Asteroid physical parameters (km, seconds, rotational period in hours):        
   GM= n.a.                RAD= n.a.               ROTPER= n.a.                
   H= 26.2                 G= .150                 B-V= n.a.                   
                           ALBEDO= n.a.            STYP= n.a.                  
*******************************************************************************
 Date__(UT)__HR:MN     R.A._________(ICRF)_________DEC
******************************************************
$$SOE
 2018-Nov-30 07:57     02 05 11.091282 +22 27 01.59363
 2018-Nov-30 07:58     02 05 11.799779 +22 27 02.88233
 2018-Nov-30 07:59     02 05 12.508478 +22 27 04.16838
 2018-Nov-30 08:00     02 05 13.217383 +22 27 05.45178
 2018-Nov-30 08:01     02 05 13.926495 +22 27 06.73253
 2018-Nov-30 08:02     02 05 14.635816 +22 27 08.01062
 2018-Nov-30 08:03     02 05 15.345350 +22 27 09.28605
 2018-Nov-30 08:04     02 05 16.055097 +22 27 10.55883
 2018-Nov-30 08:05     02 05 16.765061 +22 27 11.82896
 2018-Nov-30 08:06     02 05 17.475243 +22 27 13.09643
 2018-Nov-30 08:07     02 05 18.185647 +22 27 14.36124
 2018-Nov-30 08:08     02 05 18.896274 +22 27 15.62339
 2018-Nov-30 08:09     02 05 19.607126 +22 27 16.88289
 2018-Nov-30 08:10     02 05 20.318207 +22 27 18.13973
 2018-Nov-30 08:11     02 05 21.029517 +22 27 19.39391
 2018-Nov-30 08:12     02 05 21.741060 +22 27 20.64543
 2018-Nov-30 08:13     02 05 22.452838 +22 27 21.89429
 2018-Nov-30 08:14     02 05 23.164853 +22 27 23.14049
 2018-Nov-30 08:15     02 05 23.877108 +22 27 24.38403
 2018-Nov-30 08:16     02 05 24.589604 +22 27 25.62492
 2018-Nov-30 08:17     02 05 25.302344 +22 27 26.86315
 2018-Nov-30 08:18     02 05 26.015330 +22 27 28.09871
 2018-Nov-30 08:19     02 05 26.728565 +22 27 29.33162
 2018-Nov-30 08:20     02 05 27.442051 +22 27 30.56187
 2018-Nov-30 08:21     02 05 28.155790 +22 27 31.78946
 2018-Nov-30 08:22     02 05 28.869785 +22 27 33.01439
 2018-Nov-30 08:23     02 05 29.584037 +22 27 34.23667
 2018-Nov-30 08:24     02 05 30.298550 +22 27 35.45628
 2018-Nov-30 08:25     02 05 31.013325 +22 27 36.67325
 2018-Nov-30 08:26     02 05 31.728364 +22 27 37.88755
 2018-Nov-30 08:27     02 05 32.443671 +22 27 39.09920
 2018-Nov-30 08:28     02 05 33.159247 +22 27 40.30819
 2018-Nov-30 08:29     02 05 33.875094 +22 27 41.51453
 2018-Nov-30 08:30     02 05 34.591215 +22 27 42.71821
 2018-Nov-30 08:31     02 05 35.307613 +22 27 43.91924
 2018-Nov-30 08:32     02 05 36.024289 +22 27 45.11762
 2018-Nov-30 08:33     02 05 36.741245 +22 27 46.31335
 2018-Nov-30 08:34     02 05 37.458485 +22 27 47.50642
 2018-Nov-30 08:35     02 05 38.176010 +22 27 48.69685
 2018-Nov-30 08:36     02 05 38.893823 +22 27 49.88463
 2018-Nov-30 08:37     02 05 39.611926 +22 27 51.06975
 2018-Nov-30 08:38     02 05 40.330321 +22 27 52.25224
 2018-Nov-30 08:39     02 05 41.049010 +22 27 53.43208
 2018-Nov-30 08:40     02 05 41.767996 +22 27 54.60927
 2018-Nov-30 08:41     02 05 42.487282 +22 27 55.78382
 2018-Nov-30 08:42     02 05 43.206869 +22 27 56.95573
 2018-Nov-30 08:43     02 05 43.926759 +22 27 58.12500
 2018-Nov-30 08:44     02 05 44.646956 +22 27 59.29162
 2018-Nov-30 08:45     02 05 45.367460 +22 28 00.45562
 2018-Nov-30 08:46     02 05 46.088275 +22 28 01.61697
 2018-Nov-30 08:47     02 05 46.809404 +22 28 02.77569
 2018-Nov-30 08:48     02 05 47.530847 +22 28 03.93178
 2018-Nov-30 08:49     02 05 48.252607 +22 28 05.08524
 2018-Nov-30 08:50     02 05 48.974688 +22 28 06.23607
 2018-Nov-30 08:51     02 05 49.697090 +22 28 07.38427
 2018-Nov-30 08:52     02 05 50.419816 +22 28 08.52984
 2018-Nov-30 08:53     02 05 51.142869 +22 28 09.67280
 2018-Nov-30 08:54     02 05 51.866251 +22 28 10.81312
 2018-Nov-30 08:55     02 05 52.589964 +22 28 11.95083
 2018-Nov-30 08:56     02 05 53.314010 +22 28 13.08593
 2018-Nov-30 08:57     02 05 54.038392 +22 28 14.21840
 2018-Nov-30 08:58     02 05 54.763111 +22 28 15.34826
 2018-Nov-30 08:59     02 05 55.488171 +22 28 16.47551
 2018-Nov-30 09:00     02 05 56.213573 +22 28 17.60015
 2018-Nov-30 09:01     02 05 56.939320 +22 28 18.72219
 2018-Nov-30 09:02     02 05 57.665414 +22 28 19.84162
 2018-Nov-30 09:03     02 05 58.391857 +22 28 20.95844
 2018-Nov-30 09:04     02 05 59.118651 +22 28 22.07267
 2018-Nov-30 09:05     02 05 59.845799 +22 28 23.18430
 2018-Nov-30 09:06     02 06 00.573303 +22 28 24.29333
 2018-Nov-30 09:07     02 06 01.301166 +22 28 25.39978
 2018-Nov-30 09:08     02 06 02.029388 +22 28 26.50363
 2018-Nov-30 09:09     02 06 02.757974 +22 28 27.60489
 2018-Nov-30 09:10     02 06 03.486924 +22 28 28.70358
 2018-Nov-30 09:11     02 06 04.216242 +22 28 29.79968
 2018-Nov-30 09:12     02 06 04.945929 +22 28 30.89320
 2018-Nov-30 09:13     02 06 05.675988 +22 28 31.98414
 2018-Nov-30 09:14     02 06 06.406420 +22 28 33.07252
 2018-Nov-30 09:15     02 06 07.137229 +22 28 34.15832
 2018-Nov-30 09:16     02 06 07.868416 +22 28 35.24156
 2018-Nov-30 09:17     02 06 08.599984 +22 28 36.32223
 2018-Nov-30 09:18     02 06 09.331935 +22 28 37.40034
 2018-Nov-30 09:19     02 06 10.064271 +22 28 38.47589
 2018-Nov-30 09:20     02 06 10.796994 +22 28 39.54890
 2018-Nov-30 09:21     02 06 11.530107 +22 28 40.61935
 2018-Nov-30 09:22     02 06 12.263611 +22 28 41.68725
 2018-Nov-30 09:23     02 06 12.997510 +22 28 42.75261
 2018-Nov-30 09:24     02 06 13.731804 +22 28 43.81542
 2018-Nov-30 09:25     02 06 14.466497 +22 28 44.87571
 2018-Nov-30 09:26     02 06 15.201591 +22 28 45.93345
 2018-Nov-30 09:27     02 06 15.937087 +22 28 46.98867
 2018-Nov-30 09:28     02 06 16.672989 +22 28 48.04136
 2018-Nov-30 09:29     02 06 17.409297 +22 28 49.09153
 2018-Nov-30 09:30     02 06 18.146015 +22 28 50.13918
 2018-Nov-30 09:31     02 06 18.883145 +22 28 51.18431
 2018-Nov-30 09:32     02 06 19.620688 +22 28 52.22693
 2018-Nov-30 09:33     02 06 20.358648 +22 28 53.26705
 2018-Nov-30 09:34     02 06 21.097025 +22 28 54.30466
 2018-Nov-30 09:35     02 06 21.835823 +22 28 55.33977
 2018-Nov-30 09:36     02 06 22.575044 +22 28 56.37239
 2018-Nov-30 09:37     02 06 23.314689 +22 28 57.40252
 2018-Nov-30 09:38     02 06 24.054761 +22 28 58.43015
 2018-Nov-30 09:39     02 06 24.795262 +22 28 59.45531
 2018-Nov-30 09:40     02 06 25.536194 +22 29 00.47799
 2018-Nov-30 09:41     02 06 26.277560 +22 29 01.49819
 2018-Nov-30 09:42     02 06 27.019361 +22 29 02.51592
 2018-Nov-30 09:43     02 06 27.761600 +22 29 03.53118
 2018-Nov-30 09:44     02 06 28.504279 +22 29 04.54399
 2018-Nov-30 09:45     02 06 29.247400 +22 29 05.55433
 2018-Nov-30 09:46     02 06 29.990965 +22 29 06.56223
 2018-Nov-30 09:47     02 06 30.734976 +22 29 07.56768
 2018-Nov-30 09:48     02 06 31.479435 +22 29 08.57068
 2018-Nov-30 09:49     02 06 32.224345 +22 29 09.57124
 2018-Nov-30 09:50     02 06 32.969708 +22 29 10.56937
 2018-Nov-30 09:51     02 06 33.715526 +22 29 11.56508
 2018-Nov-30 09:52     02 06 34.461800 +22 29 12.55835
 2018-Nov-30 09:53     02 06 35.208534 +22 29 13.54921
 2018-Nov-30 09:54     02 06 35.955729 +22 29 14.53765
 2018-Nov-30 09:55     02 06 36.703387 +22 29 15.52369
 2018-Nov-30 09:56     02 06 37.451510 +22 29 16.50732
 2018-Nov-30 09:57     02 06 38.200101 +22 29 17.48855
 2018-Nov-30 09:58     02 06 38.949162 +22 29 18.46738
 2018-Nov-30 09:59     02 06 39.698694 +22 29 19.44383
